IRIDIUM 116             
1 43072U 17083C   25187.23290655  .00000016  00000+0 -13520-5 0  9993
2 43072  86.3969 106.6510 0001945  81.6490 278.4927 14.34217690394580
IRIDIUM 130             
1 43073U 17083D   25186.85235117  .00000007  00000+0 -45093-5 0  9993
2 43073  86.3977 107.0515 0001892  74.0457 286.0947 14.34217522394479
IRIDIUM 151             
1 43074U 17083E   25187.17582354  .00000030  00000+0  37560-5 0  9993
2 43074  86.3971 106.7249 0001967  83.8098 276.3322 14.34217543394546
IRIDIUM 134             
1 43075U 17083F   25186.86503667 -.00000010  00000+0 -10607-4 0  9991
2 43075  86.3972 106.8580 0001988  75.4011 284.7405 14.34217459394464
IRIDIUM 137             
1 43076U 17083G   25186.87772083  .00000010  00000+0 -34552-5 0  9998
2 43076  86.3974 106.9384 0001660  95.6578 264.4807 14.34217634394533
IRIDIUM 141             
1 43077U 17083H   25186.87138122  .00000222  00000+0  72166-4 0  9995
2 43077  86.3970 106.7910 0002424  85.7794 274.3679 14.34215136394534
IRIDIUM 153             
1 43078U 17083J   25186.75379068  .00000018  00000+0 -78994-6 0  9990
2 43078  86.3950  75.3044 0002627  82.2760 277.8734 14.34217606395627
IRIDIUM 131             
1 43079U 17083K   25186.85869480  .00000013  00000+0 -24409-5 0  9990
2 43079  86.3975 106.9596 0002319  87.6007 272.5454 14.34217658394468
